{
    "links": {
        "self": "http://www.neowsapp.com/rest/v1/neo/3766963?api_key=iIulBulltgU6a56xZRHN4H3l9WmuAYTsLGpBGhQ2"
    },
    "id": "3766963",
    "neo_reference_id": "3766963",
    "name": "(2017 BQ5)",
    "designation": "2017 BQ5",
    "nasa_jpl_url": "http://ssd.jpl.nasa.gov/sbdb.cgi?sstr=3766963",
    "absolute_magnitude_h": 22.8,
    "estimated_diameter": {
        "kilometers": {
            "estimated_diameter_min": 0.0732073989,
            "estimated_diameter_max": 0.1636967205
        },
        "meters": {
            "estimated_diameter_min": 73.2073989347,
            "estimated_diameter_max": 163.696720474
        },
        "miles": {
            "estimated_diameter_min": 0.0454889547,
            "estimated_diameter_max": 0.1017163949
        },
        "feet": {
            "estimated_diameter_min": 240.181762721,
            "estimated_diameter_max": 537.0627483999
        }
    },
    "is_potentially_hazardous_asteroid": false,
    "close_approach_data": [
        {
            "close_approach_date": "2017-02-19",
            "close_approach_date_full": "2017-Feb-19 11:48",
            "epoch_date_close_approach": 1487504880000,
            "relative_velocity": {
                "kilometers_per_second": "11.4332159679",
                "kilometers_per_hour": "41159.5774842841",
                "miles_per_hour": "25574.9607984987"
            },
            "miss_distance": {
                "astronomical": "0.1848583672",
                "lunar": "71.9099048408",
                "kilometers": "27654417.984797864",
                "miles": "17183658.5189199632"
            },
            "orbiting_body": "Earth"
        }
    ],
    "orbital_data": {
        "orbit_id": "4",
        "orbit_determination_date": "2017-04-06 08:20:54",
        "first_observation_date": "2017-01-20",
        "last_observation_date": "2017-02-01",
        "data_arc_in_days": 12,
        "observations_used": 19,
        "orbit_uncertainty": "9",
        "minimum_orbit_intersection": ".0923682",
        "jupiter_tisserand_invariant": "3.955",
        "epoch_osculation": "2457777.5",
        "eccentricity": ".5502687031624754",
        "semi_major_axis": "1.734796022899621",
        "inclination": "7.680658955708491",
        "ascending_node_longitude": "215.0363401397038",
        "orbital_period": "834.5859200296189",
        "perihelion_distance": ".7801920651272265",
        "perihelion_argument": "335.1181230469585",
        "aphelion_distance": "2.689399980672015",
        "perihelion_time": "2457830.846456997115",
        "mean_anomaly": "336.988918626521",
        "mean_motion": ".4313516336187697",
        "equinox": "J2000",
        "orbit_class": {
            "orbit_class_type": "APO",
            "orbit_class_description": "Near-Earth asteroid orbits which cross the Earth’s orbit similar to that of 1862 Apollo",
            "orbit_class_range": "a (semi-major axis) > 1.0 AU; q (perihelion) < 1.017 AU"
        }
    },
    "is_sentry_object": false
}